C/2019 L1 (PANSTARRS),e,9.9859,254.4269,50.0236,9.842728,0.0319176,0.70581438,33.0590,06/12.0/2022,2000,g 13.5,4.0
# From MPC115886
C/2019 L2 (NEOWISE),e,152.2065,12.5521,18.8013,24.93615,0.0079152,0.93485958,9.2396,06/12.0/2022,2000,g 16.0,4.0
# From MPEC 2021-Y10
P/2019 LD2 (ATLAS),e,11.6211,179.5930,121.5761,5.239564,0.0821791,0.12764795,66.7841,06/12.0/2022,2000,g  8.5,4.0
# From MPEC 2022-L66
C/2019 L3 (ATLAS),h,01/09.6155/2022,48.3583,290.7892,171.6095,1.001722,3.554443,2000,4.5,4.0
# From MPC118095
C/2019 LB7 (Kleyna),e,164.2916,3.8873,336.5006,34.56264,0.0048506,0.92805141,5.6926,06/12.0/2022,2000,g 17.0,4.0
# From MPC118843
P/2019 M2 (ATLAS),e,12.2775,307.6092,332.5759,3.027933,0.1870616,0.64778022,203.0781,06/12.0/2022,2000,g 21.2,4.0
# From MPC118095
C/2019 M3 (ATLAS),e,99.4857,154.9104,87.8824,254791,0.0000000,0.99999050,0.0000,01/01.6276/2019,2000,g 12.2,4.0
# From MPEC 2022-C56
C/2019 N1 (ATLAS),e,82.4287,13.5746,193.4416,2975,0.0000061,0.99942694,0.0000,12/01.6732/2020,2000,g  7.5,4.0
# From MPEC 2022-A21
C/2019 NJ3 (Lemmon),h,10/22.7047/2020,99.4355,142.4584,246.8924,1.001952,4.362513,2000,9.0,4.0
# From MPEC 2022-L66
A/2019 O2,e,93.2980,48.2776,129.6611,57.53247,0.0022586,0.83170073,359.3230,06/12.0/2022,2000,g  9.5,2.0
# From MPEC 2022-L66
C/2019 O3 (Palomar),h,03/09.1123/2021,89.8194,300.3962,60.1063,1.003856,8.820206,2000,3.5,4.0
# From MPEC 2021-P47
A/2019 O4,e,115.0968,354.9075,61.8835,33.12648,0.0051694,0.88992629,4.4071,06/12.0/2022,2000,g 15.5,2.0
# From MPEC 2021-N06
C/2019 Q1 (Lemmon),h,07/20.2885/2020,155.7255,42.4712,56.1496,1.000142,5.000109,2000,8.5,4.0
# From MPC117072
A/2019 Q2,e,159.0308,188.0073,176.3346,57.38811,0.0022671,0.97803762,0.0000,07/22.0308/2019,2000,g 18.0,2.0
# From MPC117072
C/2019 Q3 (PANSTARRS),h,08/21.5523/2018,65.5276,151.3248,152.7621,1.003092,7.261123,2000,8.5,4.0
# From MPC117072
P/2019 S2 (PANSTARRS),e,10.4694,93.1398,217.0849,4.740318,0.0954977,0.20630590,115.1254,06/12.0/2022,2000,g 13.5,4.0
# From MPEC 2022-CN4
P/2019 S3 (PANSTARRS),e,8.6948,150.1607,213.0146,3.415334,0.1561544,0.47122298,159.3212,06/12.0/2022,2000,g 18.3,4.0
# From MPEC 2021-S45
C/2019 S4 (Lemmon),e,92.0508,63.1527,71.3692,230.5618,0.0002815,0.98506896,0.0000,04/07.9008/2020,2000,g 11.0,4.0
# From MPEC 2022-L66
A/2019 T1,e,120.8761,6.9452,91.0667,38.53354,0.0041205,0.88887396,2.1155,06/12.0/2022,2000,g 13.0,2.0
# From MPEC 2022-L66
C/2019 T2 (Lemmon),e,111.4882,155.6437,239.4162,2567,0.0000076,0.99896913,0.0000,04/22.3869/2021,2000,g  9.0,4.0
# From MPEC 2022-L66
C/2019 T3 (ATLAS),e,121.8520,139.5289,112.3911,3455,0.0000049,0.99827808,0.0000,03/03.7907/2021,2000,g  6.8,4.0
# From MPEC 2022-L66
C/2019 T4 (ATLAS),e,53.6292,199.9389,351.2000,1003,0.0000310,0.99576849,0.0000,06/09.1294/2022,2000,g  5.0,4.0
# From MPEC 2021-P47
P/2019 T5 (ATLAS),e,33.4594,247.6467,189.5615,7.995667,0.0435935,0.80926500,45.5838,06/12.0/2022,2000,g 15.0,4.0
# From MPEC 2021-P47
P/2019 T6 (PANSTARRS),e,18.6968,71.2561,328.9412,5.435808,0.0777692,0.62290136,73.6364,06/12.0/2022,2000,g 15.5,4.0
# From MPC118096
P/2019 U4 (PANSTARRS),e,11.6983,200.0017,180.9974,3.520381,0.1492174,0.47589290,148.7798,06/12.0/2022,2000,g 19.0,4.0
# From MPEC 2022-L66
C/2019 U5 (PANSTARRS),h,03/29.9608/2023,113.5210,2.6374,181.5197,1.001318,3.623821,2000,4.5,4.0
# From MPEC 2022-H04
C/2019 U6 (Lemmon),e,60.9932,235.7207,329.6300,366.6383,0.0001404,0.99750627,0.0000,06/18.6241/2020,2000,g 10.0,4.0
# From MPC119998
C/2019 V1 (Borisov),e,61.8775,83.1826,51.1699,1422,0.0000184,0.99782243,0.0000,07/16.3757/2020,2000,g 11.0,4.0
# From MPEC 2022-L66
P/2019 V2 (Groeller),e,11.8078,189.1833,335.8821,7.505036,0.0479374,0.33123067,28.8328,06/12.0/2022,2000,g 10.0,4.0
# From MPC119998
P/2019 W1 (PANSTARRS),e,23.4704,35.3797,18.6868,4.549492,0.1015686,0.26677347,114.8590,06/12.0/2022,2000,g 12.9,4.0
# From MPEC 2021-P47
P/2019 X1 (Pruyne),e,10.2480,43.6723,36.7831,6.173069,0.0642617,0.30324070,67.9016,06/12.0/2022,2000,g 10.4,4.0
# From MPC119999
C/2019 Y1 (ATLAS),e,73.3247,31.5406,57.9403,85.83335,0.0012394,0.99032419,0.0000,03/15.6925/2020,2000,g 13.7,4.0
# From MPEC 2020-L06
C/2019 Y4 (ATLAS),h,05/31.0383/2020,45.7730,120.9611,177.2829,1.001409,0.252091,2000,11.6,6.0
# From MPEC 2020-L06
C/2019 Y4-A (ATLAS),h,05/31.0383/2020,45.7730,120.9611,177.2829,1.001409,0.252091,2000,11.6,6.0
# From MPEC 2020-L06
C/2019 Y4-B (ATLAS),e,45.4079,120.6566,177.4158,1465,0.0000176,0.99982684,0.0000,05/31.0162/2020,2000,g 12.8,6.0
# From MPEC 2020-L06
C/2019 Y4-C (ATLAS),h,05/30.9949/2020,45.5552,120.6872,177.3163,1.002129,0.253150,2000,12.7,6.0
# From MPEC 2020-L06
C/2019 Y4-D (ATLAS),e,45.5977,121.0658,177.4541,68.35019,0.0017442,0.99630556,0.0000,05/31.1160/2020,2000,g 12.5,6.0
# From MPEC 2021-P47
C/2019 Y5 (PANSTARRS),e,82.7877,51.7692,303.5271,798.4684,0.0000437,0.99384288,0.0000,08/18.2011/2019,2000,g 11.0,4.0
# From MPEC 2022-HC2
A/2020 A1,e,149.0394,119.2537,302.5736,25.50490,0.0076519,0.93461970,7.0576,06/12.0/2022,2000,g 18.0,2.0
# From MPEC 2020-L06
C/2020 A2 (Iwamoto),e,120.6986,286.3512,68.1525,1332,0.0000203,0.99926713,0.0000,01/08.5330/2020,2000,g 13.5,4.0
# From MPEC 2020-L06
C/2020 A3 (ATLAS),h,07/29.8308/2019,146.7654,120.3863,271.1548,1.026096,5.837064,2000,8.0,4.0
# From MPEC 2020-L06
C/2020 B3 (Rankin),e,20.7104,185.8478,324.9779,1037,0.0000295,0.99677912,0.0000,10/19.4165/2019,2000,g 13.0,4.0
# From MPEC 2022-H04
P/2020 B4 (Sheppard),e,11.6088,185.9793,342.2277,7.966925,0.0438296,0.19168480,8.8712,06/12.0/2022,2000,g 10.5,4.0
# From MPEC 2022-L66
C/2020 F2 (ATLAS),h,07/15.7681/2022,163.5846,250.2715,48.3577,1.005086,8.817089,2000,4.5,4.0
# From MPEC 2021-O56
C/2020 F3 (NEOWISE),e,129.0175,61.0375,37.3172,342.7825,0.0001553,0.99913858,0.0000,07/03.6083/2020,2000,g  7.5,5.2
# From MPEC 2022-L66
C/2020 F5 (MASTER),e,52.2726,350.5265,310.7602,240.9273,0.0002636,0.98205647,0.0000,03/19.4228/2021,2000,g  6.5,3.2
# From MPEC 2020-L06
C/2020 F6 (PANSTARRS),e,174.5829,207.9042,344.6110,414.0071,0.0001170,0.99152310,0.0000,04/11.7740/2020,2000,g 14.5,2.8
# From MPEC 2022-L66
C/2020 F7 (Lemmon),e,93.9514,321.8834,227.9598,642.9746,0.0000605,0.99170720,0.0000,11/13.9058/2021,2000,g  7.0,4.0
# From MPEC 2020-KB7
C/2020 F8 (SWAN),e,110.7183,259.9447,68.1649,264.7447,0.0002288,0.99837729,0.0000,05/27.5588/2020,2000,g 10.0,4.0
# From MPEC 2020-L06
P/2020 G1 (Pimentel),e,18.4930,240.1052,207.6226,3.609006,0.1437549,0.86006569,117.3955,06/12.0/2022,2000,g 17.0,4.0
# From MPEC 2020-L06
C/2020 H2 (Pruyne),e,124.9882,277.6545,26.6996,192.7303,0.0003684,0.99567836,0.0000,04/27.7421/2020,2000,g 18.0,4.0
# From MPEC 2020-HM1
C/2020 H3 (Wierzchos),p,06/05.7162/2020,62.5292,30.4456,2.300288,270.6227,2000,13.5,4.0
# From MPEC 2020-L06
C/2020 H4 (Leonard),e,84.5076,307.7138,117.5645,47.96228,0.0029673,0.98069966,0.0000,08/29.5826/2020,2000,g 15.0,3.2
# From MPEC 2022-L66
C/2020 H5 (Robinson),e,70.2439,210.6280,326.3829,3483,0.0000048,0.99731675,0.0000,12/11.5531/2020,2000,g  5.0,4.0
# From MPEC 2022-L66
C/2020 H6 (ATLAS),h,10/01.0112/2021,79.9747,213.7122,20.3396,1.000349,4.702814,2000,8.0,3.2
# From MPEC 2020-KB7
C/2020 H7 (Lemmon),e,135.9235,323.5194,82.6780,1405,0.0000187,0.99685380,0.0000,06/02.9510/2020,2000,g 11.0,4.0
# From MPEC 2021-N06
C/2020 H8 (PANSTARRS),e,99.6649,68.4126,128.9484,591.2879,0.0000685,0.99209193,0.0000,06/04.4871/2020,2000,g 10.5,4.0
# From MPEC 2022-ED3
A/2020 H9,e,137.8741,213.1616,312.8668,369.9984,0.0001385,0.99303376,0.0000,12/21.3737/2019,2000,g 18.0,2.0
# From MPEC 2022-L66
C/2020 J1 (SONEAR),h,04/18.6491/2021,142.3009,226.5897,341.7635,1.000705,3.355083,2000,8.5,3.2
# From MPEC 2022-L66
C/2020 K1 (PANSTARRS),e,89.6625,94.3565,213.9779,35141,0.0000001,0.99991254,0.0000,05/09.0673/2023,2000,g  5.5,4.0
# From MPEC 2021-N06
C/2020 K2 (PANSTARRS),h,08/06.1241/2020,91.0366,288.3665,67.3388,1.003684,8.879365,2000,10.8,4.0
# From MPEC 2020-KF9
C/2020 K3 (Leonard),p,06/01.0032/2020,129.0152,64.4924,1.583069,28.3546,2000,14.5,4.0
# From MPEC 2020-L06
C/2020 K4 (PANSTARRS),e,125.5756,264.1378,308.8309,23.92555,0.0084219,0.92667209,6.9924,06/12.0/2022,2000,g 16.5,4.0
# From MPEC 2021-R75
C/2020 K5 (PANSTARRS),h,06/05.5681/2021,67.1429,86.1667,249.5977,1.001485,1.535935,2000,11.0,4.0
# From MPEC 2022-L66
C/2020 K6 (Rankin),h,09/15.7112/2021,103.6474,291.5331,44.3215,1.003416,5.868619,2000,8.0,4.0
# From MPEC 2022-L66
C/2020 K7 (PANSTARRS),e,32.0395,286.0678,358.2586,100.6491,0.0009761,0.93650254,0.9343,06/12.0/2022,2000,g  8.0,4.0
# From MPEC 2021-P47
C/2020 K8 (Catalina-ATLAS),h,09/14.5998/2020,31.4291,181.5450,259.9867,1.000149,0.473351,2000,15.0,3.2
# From MPEC 2021-BE3
P/2020 K9 (Lemmon-PANSTARRS),e,23.2099,166.2389,196.9609,4.200434,0.1144887,0.32141480,55.5119,06/12.0/2022,2000,g 12.5,4.0
# From MPEC 2021-U31
P/2020 M1 (PANSTARRS),e,8.5733,142.7383,72.3669,5.312200,0.0804994,0.47685291,72.0917,06/12.0/2022,2000,g 14.5,4.0
# From MPEC 2022-H30
C/2020 M3 (ATLAS),e,23.4723,71.2090,328.4886,26.97620,0.0070345,0.95299815,4.1804,06/12.0/2022,2000,g 14.5,4.0
# From MPEC 2022-CN4
A/2020 M4,h,11/24.1961/2020,160.1279,348.6209,104.6559,1.000499,5.952596,2000,14.5,2.0
# From MPEC 2022-L66
C/2020 M5 (ATLAS),h,08/19.8725/2021,93.2253,352.0938,126.3319,1.000338,3.004122,2000,9.0,4.0
# From MPEC 2022-GA9
C/2020 N1 (PANSTARRS),h,03/12.2242/2021,29.7076,279.9632,186.7566,1.000441,1.319943,2000,12.5,4.0
# From MPEC 2021-P47
C/2020 N2 (ATLAS),e,161.0353,257.1133,331.2897,103.5352,0.0009356,0.98266888,0.0000,08/23.8311/2020,2000,g 16.0,3.2
# From MPEC 2020-SI8
P/2020 O1 (Lemmon-PANSTARRS),e,5.2259,175.9737,104.5321,2.644949,0.2291280,0.11922276,176.5587,06/12.0/2022,2000,g 15.5,4.0
# From MPEC 2022-L66
C/2020 O2 (Amaral),h,08/28.6604/2021,71.7533,256.7594,10.3159,1.002231,4.862417,2000,8.0,3.2
# From MPEC 2020-SI8
P/2020 O3 (PANSTARRS),e,8.4429,266.8223,81.5774,4.649490,0.0983097,0.10368485,48.9524,06/12.0/2022,2000,g 12.0,4.0
# From MPEC 2021-BE3
C/2020 P1 (NEOWISE),h,10/20.2393/2020,45.1124,53.5075,8.8868,1.000275,0.341518,2000,14.0,3.2
